1 88888U testsat  17131.16091164  .00000000  00000-0 1.0000e+00 0   1
2 88888 000.0696 277.5618 0000876 308.0912   6.6362  1.00258419 00000
1 88889U testsat  17131.16091164  .00000000  00000-0 1.0000e+00 0   1
2 88889 000.0702 271.8647 0000945 312.2765   8.1474  1.00257894 00000
